ONEWEB-0215             
1 48800U 21045AK  26078.28083411  .00000029  00000+0  42406-4 0  9992
2 48800  87.8941 277.1224 0002347 102.2052 257.9342 13.15549331232477
ONEWEB-0216             
1 48801U 21045AL  26078.29031530 -.00000285  00000+0 -79027-3 0  9993
2 48801  87.8929 277.1392 0001588  93.0046 267.1266 13.15549172232488
ONEWEB-0239             
1 48802U 21045AM  26078.29509504  .00000122  00000+0  29065-3 0  9990
2 48802  87.8924 277.1521 0002501  97.3207 262.8208 13.15548908232529
ONEWEB-0249             
1 48967U 21060A   26078.22446734 -.00002924  00000+0 -76832-2 0  9994
2 48967  87.9010 246.6655 0001893  94.2951 265.8397 13.16606004227778
ONEWEB-0250             
1 48968U 21060B   26077.97242977  .00000052  00000+0  89444-4 0  9992
2 48968  87.9014 244.7649 0002433  76.4654 283.6753 13.25828164228260
ONEWEB-0252             
1 48970U 21060D   26078.02737506 -.00000068  00000+0 -21181-3 0  9991
2 48970  87.9014 246.6971 0001603 105.0786 255.0522 13.16594338227792
ONEWEB-0253             
1 48971U 21060E   26078.16828625  .00000081  00000+0  17704-3 0  9999
2 48971  87.9013 246.6749 0001771  97.2562 262.8770 13.16596554227743
ONEWEB-0254             
1 48972U 21060F   26078.17778719 -.00000024  00000+0 -96245-4 0  9996
2 48972  87.9018 246.6681 0002068  98.0380 262.0985 13.16594242227743
ONEWEB-0255             
1 48973U 21060G   26078.21576580 -.00000420  00000+0 -11314-2 0  9996
2 48973  87.9016 246.6695 0001871  98.9929 261.1414 13.16593834227828
ONEWEB-0256             
1 48974U 21060H   26078.16590711 -.00001213  00000+0 -32077-2 0  9993
2 48974  87.9014 246.6868 0001276 102.7386 257.3888 13.16602226227782
ONEWEB-0257             
1 48975U 21060J   26078.19836715  .00000012  00000+0 -98930-6 0  9993
2 48975  87.9014 246.6639 0001803 101.7836 258.3497 13.16594141227743
ONEWEB-0258             
1 48976U 21060K   26078.19995707  .00000034  00000+0  55351-4 0  9992
2 48976  87.9011 246.6750 0001755  96.2095 263.9236 13.16597267227752
ONEWEB-0259             
1 48977U 21060L   26078.19361254 -.00000008  00000+0 -53793-4 0  9998
2 48977  87.9015 246.6752 0001890  97.8800 262.2545 13.16594742227783
ONEWEB-0260             
1 48978U 21060M   26077.95690410 -.00000022  00000+0 -90054-4 0  9998
2 48978  87.9013 246.7284 0001406 109.3105 250.8178 13.16595297227739
ONEWEB-0261             
1 48979U 21060N   26078.15480347  .00000061  00000+0  12598-3 0  9995
2 48979  87.9011 246.6883 0001983 106.0730 254.0619 13.16593400227819
ONEWEB-0262             
1 48980U 21060P   26078.21103382  .00000082  00000+0  18195-3 0  9997
2 48980  87.9014 246.6598 0001963  93.2984 266.8372 13.16594334227783
