[{"OBJECT_NAME":"ONEWEB-0215","OBJECT_ID":"2021-045AK","EPOCH":"2026-03-19T06:44:24.067104","MEAN_MOTION":13.15549331,"ECCENTRICITY":0.0002347,"INCLINATION":87.8941,"RA_OF_ASC_NODE":277.1224,"ARG_OF_PERICENTER":102.2052,"MEAN_ANOMALY":257.9342,"EPHEMERIS_TYPE":0,"CLASSIFICATION_TYPE":"U","NORAD_CAT_ID":48800,"ELEMENT_SET_NO":999,"REV_AT_EPOCH":23247,"BSTAR":4.2406458e-5,"MEAN_MOTION_DOT":2.9e-7,"MEAN_MOTION_DDOT":0},{"OBJECT_NAME":"ONEWEB-0216","OBJECT_ID":"2021-045AL","EPOCH":"2026-03-19T06:58:03.241920","MEAN_MOTION":13.15549172,"ECCENTRICITY":0.00015886,"INCLINATION":87.8929,"RA_OF_ASC_NODE":277.1392,"ARG_OF_PERICENTER":93.0046,"MEAN_ANOMALY":267.1266,"EPHEMERIS_TYPE":0,"CLASSIFICATION_TYPE":"U","NORAD_CAT_ID":48801,"ELEMENT_SET_NO":999,"REV_AT_EPOCH":23248,"BSTAR":-0.00079026684,"MEAN_MOTION_DOT":-2.85e-6,"MEAN_MOTION_DDOT":0},{"OBJECT_NAME":"ONEWEB-0239","OBJECT_ID":"2021-045AM","EPOCH":"2026-03-19T07:04:56.211456","MEAN_MOTION":13.15548908,"ECCENTRICITY":0.00025016,"INCLINATION":87.8924,"RA_OF_ASC_NODE":277.1521,"ARG_OF_PERICENTER":97.3207,"MEAN_ANOMALY":262.8208,"EPHEMERIS_TYPE":0,"CLASSIFICATION_TYPE":"U","NORAD_CAT_ID":48802,"ELEMENT_SET_NO":999,"REV_AT_EPOCH":23252,"BSTAR":0.00029064687,"MEAN_MOTION_DOT":1.22e-6,"MEAN_MOTION_DDOT":0},{"OBJECT_NAME":"ONEWEB-0249","OBJECT_ID":"2021-060A","EPOCH":"2026-03-19T05:23:13.978176","MEAN_MOTION":13.16606004,"ECCENTRICITY":0.00018935,"INCLINATION":87.901,"RA_OF_ASC_NODE":246.6655,"ARG_OF_PERICENTER":94.2951,"MEAN_ANOMALY":265.8397,"EPHEMERIS_TYPE":0,"CLASSIFICATION_TYPE":"U","NORAD_CAT_ID":48967,"ELEMENT_SET_NO":999,"REV_AT_EPOCH":22777,"BSTAR":-0.0076832381,"MEAN_MOTION_DOT":-2.924e-5,"MEAN_MOTION_DDOT":0},{"OBJECT_NAME":"ONEWEB-0250","OBJECT_ID":"2021-060B","EPOCH":"2026-03-18T23:20:17.932128","MEAN_MOTION":13.25828164,"ECCENTRICITY":0.00024337,"INCLINATION":87.9014,"RA_OF_ASC_NODE":244.7649,"ARG_OF_PERICENTER":76.4654,"MEAN_ANOMALY":283.6753,"EPHEMERIS_TYPE":0,"CLASSIFICATION_TYPE":"U","NORAD_CAT_ID":48968,"ELEMENT_SET_NO":999,"REV_AT_EPOCH":22826,"BSTAR":8.9444407e-5,"MEAN_MOTION_DOT":5.2e-7,"MEAN_MOTION_DDOT":0},{"OBJECT_NAME":"ONEWEB-0252","OBJECT_ID":"2021-060D","EPOCH":"2026-03-19T00:39:25.205184","MEAN_MOTION":13.16594338,"ECCENTRICITY":0.00016039,"INCLINATION":87.9014,"RA_OF_ASC_NODE":246.6971,"ARG_OF_PERICENTER":105.0786,"MEAN_ANOMALY":255.0522,"EPHEMERIS_TYPE":0,"CLASSIFICATION_TYPE":"U","NORAD_CAT_ID":48970,"ELEMENT_SET_NO":999,"REV_AT_EPOCH":22779,"BSTAR":-0.00021180995,"MEAN_MOTION_DOT":-6.8e-7,"MEAN_MOTION_DDOT":0},{"OBJECT_NAME":"ONEWEB-0253","OBJECT_ID":"2021-060E","EPOCH":"2026-03-19T04:02:19.932000","MEAN_MOTION":13.16596554,"ECCENTRICITY":0.00017717,"INCLINATION":87.9013,"RA_OF_ASC_NODE":246.6749,"ARG_OF_PERICENTER":97.2562,"MEAN_ANOMALY":262.877,"EPHEMERIS_TYPE":0,"CLASSIFICATION_TYPE":"U","NORAD_CAT_ID":48971,"ELEMENT_SET_NO":999,"REV_AT_EPOCH":22774,"BSTAR":0.00017704112,"MEAN_MOTION_DOT":8.1e-7,"MEAN_MOTION_DDOT":0},{"OBJECT_NAME":"ONEWEB-0254","OBJECT_ID":"2021-060F","EPOCH":"2026-03-19T04:16:00.813216","MEAN_MOTION":13.16594242,"ECCENTRICITY":0.00020682,"INCLINATION":87.9018,"RA_OF_ASC_NODE":246.6681,"ARG_OF_PERICENTER":98.038,"MEAN_ANOMALY":262.0985,"EPHEMERIS_TYPE":0,"CLASSIFICATION_TYPE":"U","NORAD_CAT_ID":48972,"ELEMENT_SET_NO":999,"REV_AT_EPOCH":22774,"BSTAR":-9.6244549e-5,"MEAN_MOTION_DOT":-2.4e-7,"MEAN_MOTION_DDOT":0},{"OBJECT_NAME":"ONEWEB-0255","OBJECT_ID":"2021-060G","EPOCH":"2026-03-19T05:10:42.165120","MEAN_MOTION":13.16593834,"ECCENTRICITY":0.00018716,"INCLINATION":87.9016,"RA_OF_ASC_NODE":246.6695,"ARG_OF_PERICENTER":98.9929,"MEAN_ANOMALY":261.1414,"EPHEMERIS_TYPE":0,"CLASSIFICATION_TYPE":"U","NORAD_CAT_ID":48973,"ELEMENT_SET_NO":999,"REV_AT_EPOCH":22782,"BSTAR":-0.0011314181,"MEAN_MOTION_DOT":-4.2e-6,"MEAN_MOTION_DDOT":0},{"OBJECT_NAME":"ONEWEB-0256","OBJECT_ID":"2021-060H","EPOCH":"2026-03-19T03:58:54.374304","MEAN_MOTION":13.16602226,"ECCENTRICITY":0.00012761,"INCLINATION":87.9014,"RA_OF_ASC_NODE":246.6868,"ARG_OF_PERICENTER":102.7386,"MEAN_ANOMALY":257.3888,"EPHEMERIS_TYPE":0,"CLASSIFICATION_TYPE":"U","NORAD_CAT_ID":48974,"ELEMENT_SET_NO":999,"REV_AT_EPOCH":22778,"BSTAR":-0.0032077418,"MEAN_MOTION_DOT":-1.213e-5,"MEAN_MOTION_DDOT":0},{"OBJECT_NAME":"ONEWEB-0257","OBJECT_ID":"2021-060J","EPOCH":"2026-03-19T04:45:38.921760","MEAN_MOTION":13.16594141,"ECCENTRICITY":0.00018036,"INCLINATION":87.9014,"RA_OF_ASC_NODE":246.6639,"ARG_OF_PERICENTER":101.7836,"MEAN_ANOMALY":258.3497,"EPHEMERIS_TYPE":0,"CLASSIFICATION_TYPE":"U","NORAD_CAT_ID":48975,"ELEMENT_SET_NO":999,"REV_AT_EPOCH":22774,"BSTAR":-9.89298e-7,"MEAN_MOTION_DOT":1.2e-7,"MEAN_MOTION_DDOT":0},{"OBJECT_NAME":"ONEWEB-0258","OBJECT_ID":"2021-060K","EPOCH":"2026-03-19T04:47:56.290848","MEAN_MOTION":13.16597267,"ECCENTRICITY":0.00017557,"INCLINATION":87.9011,"RA_OF_ASC_NODE":246.675,"ARG_OF_PERICENTER":96.2095,"MEAN_ANOMALY":263.9236,"EPHEMERIS_TYPE":0,"CLASSIFICATION_TYPE":"U","NORAD_CAT_ID":48976,"ELEMENT_SET_NO":999,"REV_AT_EPOCH":22775,"BSTAR":5.5351058e-5,"MEAN_MOTION_DOT":3.4e-7,"MEAN_MOTION_DDOT":0},{"OBJECT_NAME":"ONEWEB-0259","OBJECT_ID":"2021-060L","EPOCH":"2026-03-19T04:38:48.123456","MEAN_MOTION":13.16594742,"ECCENTRICITY":0.00018909,"INCLINATION":87.9015,"RA_OF_ASC_NODE":246.6752,"ARG_OF_PERICENTER":97.88,"MEAN_ANOMALY":262.2545,"EPHEMERIS_TYPE":0,"CLASSIFICATION_TYPE":"U","NORAD_CAT_ID":48977,"ELEMENT_SET_NO":999,"REV_AT_EPOCH":22778,"BSTAR":-5.3793186e-5,"MEAN_MOTION_DOT":-8.0e-8,"MEAN_MOTION_DDOT":0},{"OBJECT_NAME":"ONEWEB-0260","OBJECT_ID":"2021-060M","EPOCH":"2026-03-18T22:57:56.514240","MEAN_MOTION":13.16595297,"ECCENTRICITY":0.00014061,"INCLINATION":87.9013,"RA_OF_ASC_NODE":246.7284,"ARG_OF_PERICENTER":109.3105,"MEAN_ANOMALY":250.8178,"EPHEMERIS_TYPE":0,"CLASSIFICATION_TYPE":"U","NORAD_CAT_ID":48978,"ELEMENT_SET_NO":999,"REV_AT_EPOCH":22773,"BSTAR":-9.0053806e-5,"MEAN_MOTION_DOT":-2.2e-7,"MEAN_MOTION_DDOT":0},{"OBJECT_NAME":"ONEWEB-0261","OBJECT_ID":"2021-060N","EPOCH":"2026-03-19T03:42:55.019808","MEAN_MOTION":13.165934,"ECCENTRICITY":0.00019831,"INCLINATION":87.9011,"RA_OF_ASC_NODE":246.6883,"ARG_OF_PERICENTER":106.073,"MEAN_ANOMALY":254.0619,"EPHEMERIS_TYPE":0,"CLASSIFICATION_TYPE":"U","NORAD_CAT_ID":48979,"ELEMENT_SET_NO":999,"REV_AT_EPOCH":22781,"BSTAR":0.00012597932,"MEAN_MOTION_DOT":6.1e-7,"MEAN_MOTION_DDOT":0},{"OBJECT_NAME":"ONEWEB-0262","OBJECT_ID":"2021-060P","EPOCH":"2026-03-19T05:03:53.322048","MEAN_MOTION":13.16594334,"ECCENTRICITY":0.00019632,"INCLINATION":87.9014,"RA_OF_ASC_NODE":246.6598,"ARG_OF_PERICENTER":93.2984,"MEAN_ANOMALY":266.8372,"EPHEMERIS_TYPE":0,"CLASSIFICATION_TYPE":"U","NORAD_CAT_ID":48980,"ELEMENT_SET_NO":999,"REV_AT_EPOCH":22778,"BSTAR":0.00018194797,"MEAN_MOTION_DOT":8.2e-7,"MEAN_MOTION_DDOT":0}]
